IRIDIUM 112             
1 41925U 17003J   25148.56947067  .00000063  00000+0  15262-4 0  9994
2 41925  86.3971 248.9650 0002126  95.9239 264.2199 14.34217864438175
IRIDIUM 111             
1 41926U 17003K   25148.97539700  .00000111  00000+0  32571-4 0  9997
2 41926  86.3975 248.8575 0002413  97.1621 262.9849 14.34217991438250
IRIDIUM 113             
1 42803U 17039A   25149.16466596  .00000042  00000+0  78277-5 0  9992
2 42803  86.3958 122.7085 0002103  91.3687 268.7749 14.34217505416144
IRIDIUM 123             
1 42804U 17039B   25148.71776556 -.00000005  00000+0 -87590-5 0  9992
2 42804  86.3981 154.3493 0002544  93.1474 267.0013 14.34217302414844
IRIDIUM 120             
1 42805U 17039C   25149.15832522  .00000226  00000+0  73795-4 0  9992
2 42805  86.3946 122.5433 0002643  83.5945 276.5551 14.34218364416138
IRIDIUM 115             
1 42806U 17039D   25149.16438085  .00000242  00000+0  65814-4 0  9991
2 42806  86.4484 122.6169 0003075  92.0593 268.0960 14.43283577418879
IRIDIUM 118             
1 42807U 17039E   25148.74947809  .00000054  00000+0  12295-4 0  9990
2 42807  86.3977 154.3359 0002229  90.5082 269.6369 14.34218002414849
IRIDIUM 117             
1 42808U 17039F   25148.90804327  .00000058  00000+0  13477-4 0  9993
2 42808  86.3976 154.2310 0002510  95.3037 264.8445 14.34218056414897
